[{"OBJECT_NAME":"COSMOS 2242","OBJECT_ID":"1993-024A","EPOCH":"2026-03-03T16:26:35.705472","MEAN_MOTION":14.96519769,"ECCENTRICITY":0.0015592,"INCLINATION":82.5156,"RA_OF_ASC_NODE":272.4617,"ARG_OF_PERICENTER":330.3518,"MEAN_ANOMALY":29.6819,"EPHEMERIS_TYPE":0,"CLASSIFICATION_TYPE":"U","NORAD_CAT_ID":22626,"ELEMENT_SET_NO":999,"REV_AT_EPOCH":77949,"BSTAR":0.00018658,"MEAN_MOTION_DOT":2.15e-5,"MEAN_MOTION_DDOT":0},{"OBJECT_NAME":"SL-16 R/B","OBJECT_ID":"1993-059B","EPOCH":"2026-03-03T19:55:47.101728","MEAN_MOTION":14.17232219,"ECCENTRICITY":0.0018796,"INCLINATION":70.992,"RA_OF_ASC_NODE":23.4812,"ARG_OF_PERICENTER":224.8484,"MEAN_ANOMALY":135.1121,"EPHEMERIS_TYPE":0,"CLASSIFICATION_TYPE":"U","NORAD_CAT_ID":22803,"ELEMENT_SET_NO":999,"REV_AT_EPOCH":67870,"BSTAR":3.4041e-5,"MEAN_MOTION_DOT":2.1e-7,"MEAN_MOTION_DDOT":0},{"OBJECT_NAME":"ARIANE 40 R/B","OBJECT_ID":"1993-061H","EPOCH":"2026-03-03T16:38:07.747008","MEAN_MOTION":14.32857309,"ECCENTRICITY":0.0009648,"INCLINATION":98.493,"RA_OF_ASC_NODE":131.699,"ARG_OF_PERICENTER":304.9488,"MEAN_ANOMALY":55.0789,"EPHEMERIS_TYPE":0,"CLASSIFICATION_TYPE":"U","NORAD_CAT_ID":22830,"ELEMENT_SET_NO":999,"REV_AT_EPOCH":69324,"BSTAR":0.00011461,"MEAN_MOTION_DOT":2.7e-6,"MEAN_MOTION_DDOT":0},{"OBJECT_NAME":"COSMOS 2278","OBJECT_ID":"1994-023A","EPOCH":"2026-03-03T19:09:39.441888","MEAN_MOTION":14.14375747,"ECCENTRICITY":0.0007656,"INCLINATION":71.0542,"RA_OF_ASC_NODE":187.4212,"ARG_OF_PERICENTER":25.2253,"MEAN_ANOMALY":334.9242,"EPHEMERIS_TYPE":0,"CLASSIFICATION_TYPE":"U","NORAD_CAT_ID":23087,"ELEMENT_SET_NO":999,"REV_AT_EPOCH":64397,"BSTAR":0.00018962,"MEAN_MOTION_DOT":3.16e-6,"MEAN_MOTION_DDOT":0},{"OBJECT_NAME":"SL-16 R/B","OBJECT_ID":"1994-023B","EPOCH":"2026-03-03T11:51:23.974272","MEAN_MOTION":14.15013435,"ECCENTRICITY":0.00056058,"INCLINATION":70.9987,"RA_OF_ASC_NODE":83.8998,"ARG_OF_PERICENTER":291.6296,"MEAN_ANOMALY":68.4229,"EPHEMERIS_TYPE":0,"CLASSIFICATION_TYPE":"U","NORAD_CAT_ID":23088,"ELEMENT_SET_NO":999,"REV_AT_EPOCH":64521,"BSTAR":-2.3975063e-5,"MEAN_MOTION_DOT":-9.4e-7,"MEAN_MOTION_DDOT":0},{"OBJECT_NAME":"SL-16 R/B","OBJECT_ID":"1994-074B","EPOCH":"2026-03-03T15:33:33.346368","MEAN_MOTION":14.79399863,"ECCENTRICITY":0.0005388,"INCLINATION":97.7117,"RA_OF_ASC_NODE":93.7106,"ARG_OF_PERICENTER":233.8032,"MEAN_ANOMALY":239.3935,"EPHEMERIS_TYPE":0,"CLASSIFICATION_TYPE":"U","NORAD_CAT_ID":23343,"ELEMENT_SET_NO":999,"REV_AT_EPOCH":68635,"BSTAR":9.5484e-5,"MEAN_MOTION_DOT":6.63e-6,"MEAN_MOTION_DDOT":0},{"OBJECT_NAME":"SL-16 R/B","OBJECT_ID":"1994-077B","EPOCH":"2026-03-03T06:23:07.846656","MEAN_MOTION":14.15562406,"ECCENTRICITY":0.00034512,"INCLINATION":70.9851,"RA_OF_ASC_NODE":6.0016,"ARG_OF_PERICENTER":221.0572,"MEAN_ANOMALY":139.0291,"EPHEMERIS_TYPE":0,"CLASSIFICATION_TYPE":"U","NORAD_CAT_ID":23405,"ELEMENT_SET_NO":999,"REV_AT_EPOCH":61532,"BSTAR":-0.00010114473,"MEAN_MOTION_DOT":-2.46e-6,"MEAN_MOTION_DDOT":0},{"OBJECT_NAME":"ARIANE 40+ R/B","OBJECT_ID":"1995-021B","EPOCH":"2026-03-03T18:44:03.466752","MEAN_MOTION":14.39767523,"ECCENTRICITY":0.0007385,"INCLINATION":98.4509,"RA_OF_ASC_NODE":134.343,"ARG_OF_PERICENTER":152.3208,"MEAN_ANOMALY":320.1378,"EPHEMERIS_TYPE":0,"CLASSIFICATION_TYPE":"U","NORAD_CAT_ID":23561,"ELEMENT_SET_NO":999,"REV_AT_EPOCH":61839,"BSTAR":0.00014195,"MEAN_MOTION_DOT":4.02e-6,"MEAN_MOTION_DDOT":0},{"OBJECT_NAME":"SL-16 R/B","OBJECT_ID":"1995-058B","EPOCH":"2026-03-03T16:43:19.358112","MEAN_MOTION":14.15492747,"ECCENTRICITY":0.0011013,"INCLINATION":71.021,"RA_OF_ASC_NODE":192.8358,"ARG_OF_PERICENTER":136.3924,"MEAN_ANOMALY":223.8071,"EPHEMERIS_TYPE":0,"CLASSIFICATION_TYPE":"U","NORAD_CAT_ID":23705,"ELEMENT_SET_NO":999,"REV_AT_EPOCH":56700,"BSTAR":1.7964e-5,"MEAN_MOTION_DOT":-1.2e-7,"MEAN_MOTION_DDOT":0},{"OBJECT_NAME":"SL-16 R/B","OBJECT_ID":"1996-051B","EPOCH":"2026-03-03T17:18:37.350432","MEAN_MOTION":14.12413785,"ECCENTRICITY":0.0015617,"INCLINATION":70.7596,"RA_OF_ASC_NODE":187.8705,"ARG_OF_PERICENTER":156.8881,"MEAN_ANOMALY":203.2944,"EPHEMERIS_TYPE":0,"CLASSIFICATION_TYPE":"U","NORAD_CAT_ID":24298,"ELEMENT_SET_NO":999,"REV_AT_EPOCH":52080,"BSTAR":7.3235e-5,"MEAN_MOTION_DOT":8.6e-7,"MEAN_MOTION_DDOT":0},{"OBJECT_NAME":"ORBVIEW 2 (SEASTAR)","OBJECT_ID":"1997-037A","EPOCH":"2026-03-03T10:09:50.704128","MEAN_MOTION":14.35489418,"ECCENTRICITY":0.00031846,"INCLINATION":98.8555,"RA_OF_ASC_NODE":226.5696,"ARG_OF_PERICENTER":84.6018,"MEAN_ANOMALY":275.553,"EPHEMERIS_TYPE":0,"CLASSIFICATION_TYPE":"U","NORAD_CAT_ID":24883,"ELEMENT_SET_NO":999,"REV_AT_EPOCH":50757,"BSTAR":0.00016786389,"MEAN_MOTION_DOT":4.36e-6,"MEAN_MOTION_DDOT":0},{"OBJECT_NAME":"SL-16 R/B","OBJECT_ID":"1998-043G","EPOCH":"2026-03-03T18:25:30.334944","MEAN_MOTION":14.26048137,"ECCENTRICITY":0.0010488,"INCLINATION":98.8245,"RA_OF_ASC_NODE":16.0896,"ARG_OF_PERICENTER":36.6791,"MEAN_ANOMALY":323.5105,"EPHEMERIS_TYPE":0,"CLASSIFICATION_TYPE":"U","NORAD_CAT_ID":25400,"ELEMENT_SET_NO":999,"REV_AT_EPOCH":43814,"BSTAR":5.1592e-5,"MEAN_MOTION_DOT":7.8e-7,"MEAN_MOTION_DDOT":0},{"OBJECT_NAME":"SL-16 R/B","OBJECT_ID":"1998-045B","EPOCH":"2026-03-03T18:45:01.036800","MEAN_MOTION":14.1618942,"ECCENTRICITY":0.0006395,"INCLINATION":71.0112,"RA_OF_ASC_NODE":193.9979,"ARG_OF_PERICENTER":17.0539,"MEAN_ANOMALY":343.0798,"EPHEMERIS_TYPE":0,"CLASSIFICATION_TYPE":"U","NORAD_CAT_ID":25407,"ELEMENT_SET_NO":999,"REV_AT_EPOCH":42626,"BSTAR":-8.0139e-5,"MEAN_MOTION_DOT":-2.06e-6,"MEAN_MOTION_DDOT":0},{"OBJECT_NAME":"ISS (ZARYA)","OBJECT_ID":"1998-067A","EPOCH":"2026-03-03T18:28:10.188768","MEAN_MOTION":15.48425902,"ECCENTRICITY":0.0008204,"INCLINATION":51.6317,"RA_OF_ASC_NODE":101.625,"ARG_OF_PERICENTER":153.6152,"MEAN_ANOMALY":206.5256,"EPHEMERIS_TYPE":0,"CLASSIFICATION_TYPE":"U","NORAD_CAT_ID":25544,"ELEMENT_SET_NO":999,"REV_AT_EPOCH":55541,"BSTAR":0.00019358,"MEAN_MOTION_DOT":0.00010027,"MEAN_MOTION_DDOT":0},{"OBJECT_NAME":"CZ-4B R/B","OBJECT_ID":"1999-025C","EPOCH":"2026-03-03T17:58:51.730176","MEAN_MOTION":14.18263948,"ECCENTRICITY":0.0037082,"INCLINATION":98.6639,"RA_OF_ASC_NODE":107.1713,"ARG_OF_PERICENTER":3.7679,"MEAN_ANOMALY":107.5443,"EPHEMERIS_TYPE":0,"CLASSIFICATION_TYPE":"U","NORAD_CAT_ID":25732,"ELEMENT_SET_NO":999,"REV_AT_EPOCH":38732,"BSTAR":5.9787e-5,"MEAN_MOTION_DOT":8.1e-7,"MEAN_MOTION_DDOT":0},{"OBJECT_NAME":"OKEAN-O","OBJECT_ID":"1999-039A","EPOCH":"2026-03-03T16:53:22.714368","MEAN_MOTION":14.80324289,"ECCENTRICITY":0.0001442,"INCLINATION":97.9454,"RA_OF_ASC_NODE":122.6557,"ARG_OF_PERICENTER":71.1339,"MEAN_ANOMALY":289.003,"EPHEMERIS_TYPE":0,"CLASSIFICATION_TYPE":"U","NORAD_CAT_ID":25860,"ELEMENT_SET_NO":999,"REV_AT_EPOCH":43350,"BSTAR":0.00012426,"MEAN_MOTION_DOT":8.95e-6,"MEAN_MOTION_DDOT":0},{"OBJECT_NAME":"SL-16 R/B","OBJECT_ID":"1999-039B","EPOCH":"2026-03-03T18:09:44.982432","MEAN_MOTION":14.81722059,"ECCENTRICITY":0.0013446,"INCLINATION":97.9978,"RA_OF_ASC_NODE":121.862,"ARG_OF_PERICENTER":277.3941,"MEAN_ANOMALY":82.5744,"EPHEMERIS_TYPE":0,"CLASSIFICATION_TYPE":"U","NORAD_CAT_ID":25861,"ELEMENT_SET_NO":999,"REV_AT_EPOCH":43598,"BSTAR":0.00010777,"MEAN_MOTION_DOT":7.96e-6,"MEAN_MOTION_DDOT":0}]
